NORAD_CAT_ID,OBJECT_NAME,OBJECT_TYPE,EPOCH,MEAN_MOTION,ECCENTRICITY,INCLINATION,RA_OF_ASC_NODE,ARG_OF_PERICENTER,MEAN_ANOMALY,BSTAR,MEAN_MOTION_DOT,MEAN_MOTION_DDOT,TLE_LINE0,TLE_LINE1,TLE_LINE2,SEMIMAJOR_AXIS,PERIOD,APOGEE,PERIGEE,DECAYED
54758.0,STARLINK-5464,PAYLOAD,2024-07-14 08:32:37,15.0882094,0.0001281,53.2156,227.7836,98.6706,261.4432,0.00039978,6.077e-05,0.0,0 STARLINK-5464,1 54758U 22175A   24196.35598577  .00006077  00000-0  39978-3 0  9996,2 54758  53.2156 227.7836 0001281  98.6706 261.4432 15.08820940 85468,6917.939,95.439,540.69,538.917,0.0
54758.0,STARLINK-5464,PAYLOAD,2024-07-14 19:40:17,15.08850646,0.0001346,53.2158,225.7029,90.7898,269.3248,6.1358e-05,6.89e-06,0.0,0 STARLINK-5464,1 54758U 22175A   24196.81965079  .00000689  00000-0  61358-4 0  9993,2 54758  53.2158 225.7029 0001346  90.7898 269.3248 15.08850646 85535,6917.848,95.437,540.644,538.782,0.0
54758.0,STARLINK-5464,PAYLOAD,2024-07-15 05:12:37,15.08835909,0.0001416,53.2164,223.9198,91.6312,268.4843,6.9774e-05,8.23e-06,0.0,0 STARLINK-5464,1 54758U 22175A   24197.21710055  .00000823  00000-0  69774-4 0  9990,2 54758  53.2164 223.9198 0001416  91.6312 268.4843 15.08835909 85590,6917.893,95.438,540.737,538.778,0.0
54758.0,STARLINK-5464,PAYLOAD,2024-07-15 08:23:23,15.08834,0.0001299,53.2168,223.3233,99.4585,260.6554,0.00011737,1.58e-05,0.0,0 STARLINK-5464,1 54758U 22175A   24197.34958029  .00001580  00000-0  11737-3 0  9995,2 54758  53.2168 223.3233 0001299  99.4585 260.6554 15.08834000 89054,6917.899,95.438,540.662,538.865,0.0
54758.0,STARLINK-5464,PAYLOAD,2024-07-16 05:03:25,15.08828984,0.000144,53.2167,219.4588,94.5252,265.5904,-4.0372e-05,-9.3e-06,0.0,0 STARLINK-5464,1 54758U 22175A   24198.21071076 -.00000930  00000-0 -40372-4 0  9998,2 54758  53.2167 219.4588 0001440  94.5252 265.5904 15.08828984 85746,6917.914,95.438,540.775,538.783,0.0
54758.0,STARLINK-5464,PAYLOAD,2024-07-16 11:24:57,15.08834859,0.0001291,53.2155,218.2709,85.2379,274.876,-9.8688e-05,-1.858e-05,0.0,0 STARLINK-5464,1 54758U 22175A   24198.47567040 -.00001858  00000-0 -98688-4 0  9990,2 54758  53.2155 218.2709 0001291  85.2379 274.8760 15.08834859 89224,6917.896,95.438,540.654,538.868,0.0
54758.0,STARLINK-5464,PAYLOAD,2024-07-17 08:04:58,15.08833416,0.0001286,53.2151,214.4047,89.9439,270.1701,5.9264e-05,6.55e-06,0.0,0 STARLINK-5464,1 54758U 22175A   24199.33679061  .00000655  00000-0  59264-4 0  9992,2 54758  53.2151 214.4047 0001286  89.9439 270.1701 15.08833416 85919,6917.901,95.438,540.655,538.876,0.0
54758.0,STARLINK-5464,PAYLOAD,2024-07-18 07:55:45,15.08841454,0.0001296,53.2157,209.9431,86.9225,273.1916,0.00019241,2.776e-05,0.0,0 STARLINK-5464,1 54758U 22175A   24200.33038757  .00002776  00000-0  19241-3 0  9992,2 54758  53.2157 209.9431 0001296  86.9225 273.1916 15.08841454 86061,6917.876,95.437,540.638,538.844,0.0
54758.0,STARLINK-5464,PAYLOAD,2024-07-18 17:28:04,15.08845161,0.0001346,53.2161,208.1592,87.806,272.3086,0.00019551,2.825e-05,0.0,0 STARLINK-5464,1 54758U 22175A   24200.72782591  .00002825  00000-0  19551-3 0  9996,2 54758  53.2161 208.1592 0001346  87.8060 272.3086 15.08845161 89564,6917.865,95.437,540.661,538.798,0.0
54758.0,STARLINK-5464,PAYLOAD,2024-07-19 04:35:46,15.08840874,0.0001432,53.217,206.0786,91.524,268.5917,8.0288e-05,9.9e-06,0.0,0 STARLINK-5464,1 54758U 22175A   24201.19151174  .00000990  00000-0  80288-4 0  9992,2 54758  53.2170 206.0786 0001432  91.5240 268.5917 15.08840874 86196,6917.878,95.437,540.733,538.752,0.0
54758.0,STARLINK-5464,PAYLOAD,2024-07-19 09:21:55,15.08843571,0.0001439,53.2169,205.1865,90.9557,269.16,9.6271e-05,1.245e-05,0.0,0 STARLINK-5464,1 54758U 22175A   24201.39022930  .00001245  00000-0  96271-4 0  9994,2 54758  53.2169 205.1865 0001439  90.9557 269.1600 15.08843571 89661,6917.869,95.437,540.73,538.739,0.0
54758.0,STARLINK-5464,PAYLOAD,2024-07-19 17:18:51,15.08847269,0.0001428,53.2168,203.6991,86.346,273.7695,9.1868e-05,1.175e-05,0.0,0 STARLINK-5464,1 54758U 22175A   24201.72142500  .00001175  00000-0  91868-4 0  9996,2 54758  53.2168 203.6991 0001428  86.3460 273.7695 15.08847269 89712,6917.858,95.437,540.711,538.735,0.0
54758.0,STARLINK-5464,PAYLOAD,2024-07-20 09:12:42,15.08847672,0.0001466,53.2169,200.7254,84.9567,275.1593,3.1628e-05,2.16e-06,0.0,0 STARLINK-5464,1 54758U 22175A   24202.38382360  .00000216  00000-0  31628-4 0  9992,2 54758  53.2169 200.7254 0001466  84.9567 275.1593 15.08847672 86377,6917.857,95.437,540.736,538.708,0.0
54758.0,STARLINK-5464,PAYLOAD,2024-07-20 17:09:37,15.08848517,0.0001482,53.2169,199.2382,82.6969,277.4191,3.2266e-05,2.26e-06,0.0,0 STARLINK-5464,1 54758U 22175A   24202.71502179  .00000226  00000-0  32266-4 0  9991,2 54758  53.2169 199.2382 0001482  82.6969 277.4191 15.08848517 89865,6917.854,95.437,540.745,538.694,0.0
54758.0,STARLINK-5464,PAYLOAD,2024-07-21 05:52:43,15.08835834,0.0001484,53.2167,196.8598,86.9977,273.1184,8.2202e-06,-1.57e-06,0.0,0 STARLINK-5464,1 54758U 22175A   24203.24495036 -.00000157  00000-0  82202-5 0  9993,2 54758  53.2167 196.8598 0001484  86.9977 273.1184 15.08835834 86504,6917.893,95.438,540.785,538.732,0.0
54758.0,STARLINK-5464,PAYLOAD,2024-07-22 05:43:30,15.08836675,0.0001487,53.2163,192.3968,93.487,266.6292,3.8022e-06,-2.27e-06,0.0,0 STARLINK-5464,1 54758U 22175A   24204.23855135 -.00000227  00000-0  38022-5 0  9992,2 54758  53.2163 192.3968 0001487  93.4870 266.6292 15.08836675 90090,6917.891,95.438,540.784,538.727,0.0
54758.0,STARLINK-5464,PAYLOAD,2024-07-22 23:12:44,15.08839775,0.0001408,53.2156,189.1243,94.3632,265.7521,0.00011921,1.61e-05,0.0,0 STARLINK-5464,1 54758U 22175A   24204.96718616  .00001610  00000-0  11921-3 0  9997,2 54758  53.2156 189.1243 0001408  94.3632 265.7521 15.08839775 90203,6917.881,95.438,540.72,538.772,0.0
54758.0,STARLINK-5464,PAYLOAD,2024-07-23 03:58:54,15.08843958,0.0001437,53.2155,188.236,84.8762,275.2394,0.00016223,2.295e-05,0.0,0 STARLINK-5464,1 54758U 22175A   24205.16590369  .00002295  00000-0  16223-3 0  9993,2 54758  53.2155 188.2360 0001437  84.8762 275.2394 15.08843958 86793,6917.868,95.437,540.727,538.739,0.0
54758.0,STARLINK-5464,PAYLOAD,2024-07-24 03:49:41,15.08842002,0.0001497,53.2172,183.7785,114.5631,245.5517,4.8143e-05,4.78e-06,0.0,0 STARLINK-5464,1 54758U 22175A   24206.15950703  .00000478  00000-0  48143-4 0  9993,2 54758  53.2172 183.7785 0001497 114.5631 245.5517 15.08842002 86948,6917.874,95.437,540.775,538.704,0.0
54758.0,STARLINK-5464,PAYLOAD,2024-07-24 08:35:51,15.08836874,0.0001183,53.2165,182.8845,84.0459,276.0668,2.7331e-05,1.47e-06,0.0,0 STARLINK-5464,1 54758U 22175A   24206.35823169  .00000147  00000-0  27331-4 0  9999,2 54758  53.2165 182.8845 0001183  84.0459 276.0668 15.08836874 86977,6917.89,95.438,540.573,538.937,0.0
54758.0,STARLINK-5464,PAYLOAD,2024-07-25 03:40:28,15.08841227,0.0001407,53.2169,179.3169,103.964,256.1509,-6.9983e-06,-3.99e-06,0.0,0 STARLINK-5464,1 54758U 22175A   24207.15311005 -.00000399  00000-0 -69983-5 0  9990,2 54758  53.2169 179.3169 0001407 103.9640 256.1509 15.08841227 90531,6917.877,95.437,540.715,538.768,0.0
54758.0,STARLINK-5464,PAYLOAD,2024-07-25 08:26:37,15.08846981,0.0001217,53.2163,178.4218,79.8962,280.2167,1.8659e-05,9e-08,0.0,0 STARLINK-5464,1 54758U 22175A   24207.35182583  .00000009  00000-0  18659-4 0  9998,2 54758  53.2163 178.4218 0001217  79.8962 280.2167 15.08846981 87128,6917.859,95.437,540.566,538.882,0.0
54758.0,STARLINK-5464,PAYLOAD,2024-07-25 21:09:43,15.08833755,0.0001251,53.2168,176.0427,103.7576,256.3556,0.00011502,1.543e-05,0.0,0 STARLINK-5464,1 54758U 22175A   24207.88174847  .00001543  00000-0  11502-3 0  9993,2 54758  53.2168 176.0427 0001251 103.7576 256.3556 15.08833755 87205,6917.899,95.438,540.63,538.899,0.0
54758.0,STARLINK-5464,PAYLOAD,2024-07-25 22:45:06,15.08832868,0.0001188,53.2167,175.7447,95.273,264.8398,0.00011028,1.467e-05,0.0,0 STARLINK-5464,1 54758U 22175A   24207.94798999  .00001467  00000-0  11028-3 0  9998,2 54758  53.2167 175.7447 0001188  95.2730 264.8398 15.08832868 90653,6917.902,95.438,540.589,538.945,0.0
54758.0,STARLINK-5464,PAYLOAD,2024-07-26 05:06:39,15.0883336,0.0001218,53.217,174.5563,95.3939,264.7192,0.00010393,1.366e-05,0.0,0 STARLINK-5464,1 54758U 22175A   24208.21295180  .00001366  00000-0  10393-3 0  9995,2 54758  53.2170 174.5563 0001218  95.3939 264.7192 15.08833360 90692,6917.901,95.438,540.608,538.923,0.0
54758.0,STARLINK-5464,PAYLOAD,2024-07-26 14:38:57,15.08843607,0.0001389,53.2185,172.7728,96.4551,263.6599,0.00015938,2.25e-05,0.0,0 STARLINK-5464,1 54758U 22175A   24208.61038459  .00002250  00000-0  15938-3 0  9996,2 54758  53.2185 172.7728 0001389  96.4551 263.6599 15.08843607 87311,6917.869,95.437,540.695,538.773,0.0
54758.0,STARLINK-5464,PAYLOAD,2024-07-27 04:57:26,15.08838559,0.0001376,53.218,170.0975,87.7456,272.3694,-1.0667e-05,-4.58e-06,0.0,0 STARLINK-5464,1 54758U 22175A   24209.20655353 -.00000458  00000-0 -10667-4 0  9995,2 54758  53.2180 170.0975 0001376  87.7456 272.3694 15.08838559 87407,6917.885,95.438,540.702,538.798,0.0
54758.0,STARLINK-5464,PAYLOAD,2024-07-27 14:29:44,15.08849739,0.000155,53.2162,168.3118,76.4697,283.6468,6.9864e-05,8.24e-06,0.0,0 STARLINK-5464,1 54758U 22175A   24209.60398388  .00000824  00000-0  69864-4 0  9999,2 54758  53.2162 168.3118 0001550  76.4697 283.6468 15.08849739 90907,6917.851,95.437,540.788,538.643,0.0
54758.0,STARLINK-5464,PAYLOAD,2024-07-28 04:48:13,15.08834983,0.0001204,53.216,165.6349,81.0179,279.0949,5.1019e-05,5.24e-06,0.0,0 STARLINK-5464,1 54758U 22175A   24210.20015545  .00000524  00000-0  51019-4 0  9998,2 54758  53.2160 165.6349 0001204  81.0179 279.0949 15.08834983 90991,6917.896,95.438,540.594,538.928,0.0
54758.0,STARLINK-5464,PAYLOAD,2024-07-29 03:03:37,15.08839891,0.0001422,53.2166,161.4705,89.8544,270.2611,0.00010733,1.421e-05,0.0,0 STARLINK-5464,1 54758U 22175A   24211.12751366  .00001421  00000-0  10733-3 0  9992,2 54758  53.2166 161.4705 0001422  89.8544 270.2611 15.08839891 87696,6917.881,95.438,540.729,538.762,0.0
